[{"OBJECT_NAME":"ASTROCAST-0403","OBJECT_ID":"2023-001DG","EPOCH":"2026-03-09T19:45:35.762976","MEAN_MOTION":15.28004949,"ECCENTRICITY":0.00047706,"INCLINATION":97.5604,"RA_OF_ASC_NODE":161.3228,"ARG_OF_PERICENTER":338.0704,"MEAN_ANOMALY":22.033,"EPHEMERIS_TYPE":0,"CLASSIFICATION_TYPE":"U","NORAD_CAT_ID":55111,"ELEMENT_SET_NO":999,"REV_AT_EPOCH":12937,"BSTAR":0.0005131719,"MEAN_MOTION_DOT":0.00013959,"MEAN_MOTION_DDOT":0},{"OBJECT_NAME":"STARLINK-35366","OBJECT_ID":"2025-263AD","EPOCH":"2026-03-09T03:16:21.009792","MEAN_MOTION":15.27591667,"ECCENTRICITY":0.00072204,"INCLINATION":43.0014,"RA_OF_ASC_NODE":353.8669,"ARG_OF_PERICENTER":234.1942,"MEAN_ANOMALY":125.8239,"EPHEMERIS_TYPE":0,"CLASSIFICATION_TYPE":"U","NORAD_CAT_ID":66512,"ELEMENT_SET_NO":999,"REV_AT_EPOCH":1881,"BSTAR":0.0010385692,"MEAN_MOTION_DOT":0.00028456,"MEAN_MOTION_DDOT":0}]
